[Satellite]
VERSION=1.1
NAME=ATS 1
NICKNAME=ATS 1
TLE1=1 02608U 66110A   11057.69978230 -.00000159  00000-0  10000-3 0  1776
TLE2=2 02608   6.8523 307.8175 0003215 178.0131 181.9914  1.00394452 78720
